[{"OBJECT_NAME":"STARLINK-5798","OBJECT_ID":"2023-042BG","EPOCH":"2026-03-09T22:00:01.999584","MEAN_MOTION":15.108097,"ECCENTRICITY":8.899e-5,"INCLINATION":43.001,"RA_OF_ASC_NODE":28.4818,"ARG_OF_PERICENTER":317.5399,"MEAN_ANOMALY":205.8685,"EPHEMERIS_TYPE":0,"CLASSIFICATION_TYPE":"U","NORAD_CAT_ID":56040,"ELEMENT_SET_NO":999,"REV_AT_EPOCH":568,"BSTAR":0.0025740213,"MEAN_MOTION_DOT":0.00043558,"MEAN_MOTION_DDOT":0},{"OBJECT_NAME":"PSLV DEB","OBJECT_ID":"2001-049NA","EPOCH":"2026-03-08T15:04:56.759808","MEAN_MOTION":15.08740413,"ECCENTRICITY":0.00254054,"INCLINATION":98.314,"RA_OF_ASC_NODE":131.3874,"ARG_OF_PERICENTER":357.4644,"MEAN_ANOMALY":2.6449,"EPHEMERIS_TYPE":0,"CLASSIFICATION_TYPE":"U","NORAD_CAT_ID":27582,"ELEMENT_SET_NO":999,"REV_AT_EPOCH":27774,"BSTAR":0.00086862236,"MEAN_MOTION_DOT":0.0001368,"MEAN_MOTION_DDOT":0}]
